*******************************************************************************
Ephemeris / WWW_USER Mon Mar 10 08:33:50 2025 Pasadena, USA      / Horizons    
*******************************************************************************
Target body name: 341764 (2007 VZ326)             {source: JPL#18}
Center body name: Earth (399)                     {source: DE441}
Center-site name: Mauna Kea
*******************************************************************************
Start time      : A.D. 2018-Aug-09 05:04:00.0000 UT      
Stop  time      : A.D. 2018-Aug-09 15:50:00.0000 UT      
Step-size       : 1 minutes
*******************************************************************************
Target pole/equ : undefined
Target radii    : undefined                                                    
Center geodetic : 204.5278, 19.8260847, 4.21024   {E-lon(deg),Lat(deg),Alt(km)}
Center cylindric: 204.5278, 6006.35451, 2151.0229 {E-lon(deg),Dxy(km),Dz(km)}
Center pole/equ : ITRF93                          {East-longitude positive}
Center radii    : 6378.137, 6378.137, 6356.752 km {Equator_a, b, pole_c}       
Target primary  : Sun
Vis. interferer : MOON (R_eq= 1737.400) km        {source: DE441}
Rel. light bend : Sun                             {source: DE441}
Rel. lght bnd GM: 1.3271E+11 km^3/s^2                                          
Small-body perts: Yes                             {source: SB441-N16}
Atmos refraction: NO (AIRLESS)
RA format       : HMS
Time format     : CAL 
Calendar mode   : Mixed Julian/Gregorian
RTS-only print  : NO       
EOP file        : eop.250307.p250603                                           
EOP coverage    : DATA-BASED 1962-JAN-20 TO 2025-MAR-07. PREDICTS-> 2025-JUN-02
Units conversion: 1 au= 149597870.700 km, c= 299792.458 km/s, 1 day= 86400.0 s 
Table cut-offs 1: Elevation (-90.0deg=NO ),Airmass (>38.000=NO), Daylight (YES)
Table cut-offs 2: Solar elongation (  0.0,180.0=NO ),Local Hour Angle( 0.0=NO )
Table cut-offs 3: RA/DEC angular rate (     0.0=NO )                           
*******************************************************************************
Initial IAU76/J2000 heliocentric ecliptic osculating elements (au, days, deg.):
  EPOCH=  2458738.5 ! 2019-Sep-12.00 (TDB)         Residual RMS= .13886        
   EC= .1008373990761695   QR= 2.768240023430626   TP= 2458584.3440952813      
   OM= 228.7009686323446   W=  245.4004729743531   IN= 4.232471987434818       
  Equivalent ICRF heliocentric cartesian coordinates (au, au/d):
   X=-2.388613100272569E+00  Y= 1.431394755664809E+00  Z= 3.975078424350988E-01
  VX=-6.081658482309184E-03 VY=-8.102092841560219E-03 VZ=-3.413222734767960E-03
Asteroid physical parameters (km, seconds, rotational period in hours):        
   GM= n.a.                RAD= n.a.               ROTPER= n.a.                
   H= 16.54                G= .150                 B-V= n.a.                   
                           ALBEDO= n.a.            STYP= n.a.                  
*******************************************************************************
 Date__(UT)__HR:MN     R.A._________(ICRF)_________DEC
******************************************************
$$SOE
 2018-Aug-09 05:04 C   05 08 11.449140 +22 08 12.31952
 2018-Aug-09 05:05 C   05 08 11.509597 +22 08 12.35277
 2018-Aug-09 05:06 C   05 08 11.570054 +22 08 12.38604
 2018-Aug-09 05:07 C   05 08 11.630512 +22 08 12.41933
 2018-Aug-09 05:08 C   05 08 11.690971 +22 08 12.45263
 2018-Aug-09 05:09 C   05 08 11.751431 +22 08 12.48595
 2018-Aug-09 05:10 C   05 08 11.811892 +22 08 12.51928
 2018-Aug-09 05:11 C   05 08 11.872354 +22 08 12.55263
 2018-Aug-09 05:12 C   05 08 11.932817 +22 08 12.58599
 2018-Aug-09 05:13 C   05 08 11.993280 +22 08 12.61937
 2018-Aug-09 05:14 C   05 08 12.053744 +22 08 12.65276
 2018-Aug-09 05:15 C   05 08 12.114209 +22 08 12.68617
 2018-Aug-09 05:16 C   05 08 12.174675 +22 08 12.71960
 2018-Aug-09 05:17 C   05 08 12.235142 +22 08 12.75304
 2018-Aug-09 05:18 N   05 08 12.295609 +22 08 12.78650
 2018-Aug-09 05:19 N   05 08 12.356077 +22 08 12.81997
 2018-Aug-09 05:20 N   05 08 12.416546 +22 08 12.85346
 2018-Aug-09 05:21 N   05 08 12.477016 +22 08 12.88696
 2018-Aug-09 05:22 N   05 08 12.537486 +22 08 12.92048
 2018-Aug-09 05:23 N   05 08 12.597957 +22 08 12.95402
 2018-Aug-09 05:24 N   05 08 12.658429 +22 08 12.98757
 2018-Aug-09 05:25 N   05 08 12.718901 +22 08 13.02114
 2018-Aug-09 05:26 N   05 08 12.779374 +22 08 13.05472
 2018-Aug-09 05:27 N   05 08 12.839847 +22 08 13.08832
 2018-Aug-09 05:28 N   05 08 12.900321 +22 08 13.12193
 2018-Aug-09 05:29 N   05 08 12.960796 +22 08 13.15556
 2018-Aug-09 05:30 N   05 08 13.021272 +22 08 13.18921
 2018-Aug-09 05:31 N   05 08 13.081747 +22 08 13.22287
 2018-Aug-09 05:32 N   05 08 13.142224 +22 08 13.25655
 2018-Aug-09 05:33 N   05 08 13.202701 +22 08 13.29024
 2018-Aug-09 05:34 N   05 08 13.263178 +22 08 13.32395
 2018-Aug-09 05:35 N   05 08 13.323656 +22 08 13.35768
 2018-Aug-09 05:36 N   05 08 13.384135 +22 08 13.39142
 2018-Aug-09 05:37 N   05 08 13.444614 +22 08 13.42518
 2018-Aug-09 05:38 N   05 08 13.505093 +22 08 13.45896
 2018-Aug-09 05:39 N   05 08 13.565573 +22 08 13.49275
 2018-Aug-09 05:40 N   05 08 13.626054 +22 08 13.52655
 2018-Aug-09 05:41 N   05 08 13.686534 +22 08 13.56038
 2018-Aug-09 05:42 N   05 08 13.747016 +22 08 13.59421
 2018-Aug-09 05:43 N   05 08 13.807497 +22 08 13.62807
 2018-Aug-09 05:44 N   05 08 13.867979 +22 08 13.66194
 2018-Aug-09 05:45 N   05 08 13.928461 +22 08 13.69583
 2018-Aug-09 05:46 A   05 08 13.988944 +22 08 13.72973
 2018-Aug-09 05:47 A   05 08 14.049427 +22 08 13.76365
 2018-Aug-09 05:48 A   05 08 14.109910 +22 08 13.79758
 2018-Aug-09 05:49 A   05 08 14.170394 +22 08 13.83154
 2018-Aug-09 05:50 A   05 08 14.230877 +22 08 13.86550
 2018-Aug-09 05:51 A   05 08 14.291362 +22 08 13.89949
 2018-Aug-09 05:52 A   05 08 14.351846 +22 08 13.93349
 2018-Aug-09 05:53 A   05 08 14.412331 +22 08 13.96750
 2018-Aug-09 05:54 A   05 08 14.472815 +22 08 14.00154
 2018-Aug-09 05:55 A   05 08 14.533300 +22 08 14.03559
 2018-Aug-09 05:56 A   05 08 14.593786 +22 08 14.06965
 2018-Aug-09 05:57 A   05 08 14.654271 +22 08 14.10373
 2018-Aug-09 05:58 A   05 08 14.714757 +22 08 14.13783
 2018-Aug-09 05:59 A   05 08 14.775242 +22 08 14.17194
 2018-Aug-09 06:00 A   05 08 14.835728 +22 08 14.20607
 2018-Aug-09 06:01 A   05 08 14.896214 +22 08 14.24022
 2018-Aug-09 06:02 A   05 08 14.956700 +22 08 14.27438
 2018-Aug-09 06:03 A   05 08 15.017186 +22 08 14.30856
 2018-Aug-09 06:04 A   05 08 15.077673 +22 08 14.34276
 2018-Aug-09 06:05 A   05 08 15.138159 +22 08 14.37697
 2018-Aug-09 06:06 A   05 08 15.198645 +22 08 14.41120
 2018-Aug-09 06:07 A   05 08 15.259131 +22 08 14.44544
 2018-Aug-09 06:08 A   05 08 15.319618 +22 08 14.47970
 2018-Aug-09 06:09 A   05 08 15.380104 +22 08 14.51398
 2018-Aug-09 06:10 A   05 08 15.440590 +22 08 14.54827
 2018-Aug-09 06:11 A   05 08 15.501077 +22 08 14.58258
 2018-Aug-09 06:12 A   05 08 15.561563 +22 08 14.61691
 2018-Aug-09 06:13     05 08 15.622049 +22 08 14.65125
 2018-Aug-09 06:14     05 08 15.682535 +22 08 14.68561
 2018-Aug-09 06:15     05 08 15.743021 +22 08 14.71998
 2018-Aug-09 06:16     05 08 15.803507 +22 08 14.75437
 2018-Aug-09 06:17     05 08 15.863993 +22 08 14.78878
 2018-Aug-09 06:18     05 08 15.924479 +22 08 14.82321
 2018-Aug-09 06:19     05 08 15.984964 +22 08 14.85765
 2018-Aug-09 06:20     05 08 16.045449 +22 08 14.89210
 2018-Aug-09 06:21     05 08 16.105934 +22 08 14.92658
 2018-Aug-09 06:22     05 08 16.166419 +22 08 14.96106
 2018-Aug-09 06:23     05 08 16.226904 +22 08 14.99557
 2018-Aug-09 06:24     05 08 16.287389 +22 08 15.03009
 2018-Aug-09 06:25     05 08 16.347873 +22 08 15.06463
 2018-Aug-09 06:26     05 08 16.408357 +22 08 15.09919
 2018-Aug-09 06:27     05 08 16.468840 +22 08 15.13376
 2018-Aug-09 06:28     05 08 16.529324 +22 08 15.16834
 2018-Aug-09 06:29     05 08 16.589807 +22 08 15.20295
 2018-Aug-09 06:30     05 08 16.650290 +22 08 15.23757
 2018-Aug-09 06:31     05 08 16.710772 +22 08 15.27220
 2018-Aug-09 06:32     05 08 16.771254 +22 08 15.30686
 2018-Aug-09 06:33     05 08 16.831736 +22 08 15.34153
 2018-Aug-09 06:34     05 08 16.892217 +22 08 15.37621
 2018-Aug-09 06:35     05 08 16.952698 +22 08 15.41091
 2018-Aug-09 06:36     05 08 17.013178 +22 08 15.44563
 2018-Aug-09 06:37     05 08 17.073658 +22 08 15.48037
 2018-Aug-09 06:38     05 08 17.134138 +22 08 15.51512
 2018-Aug-09 06:39     05 08 17.194617 +22 08 15.54988
 2018-Aug-09 06:40     05 08 17.255096 +22 08 15.58467
 2018-Aug-09 06:41     05 08 17.315574 +22 08 15.61947
 2018-Aug-09 06:42     05 08 17.376052 +22 08 15.65428
 2018-Aug-09 06:43     05 08 17.436529 +22 08 15.68911
 2018-Aug-09 06:44     05 08 17.497006 +22 08 15.72396
 2018-Aug-09 06:45     05 08 17.557482 +22 08 15.75883
 2018-Aug-09 06:46     05 08 17.617957 +22 08 15.79371
 2018-Aug-09 06:47     05 08 17.678432 +22 08 15.82860
 2018-Aug-09 06:48     05 08 17.738906 +22 08 15.86352
 2018-Aug-09 06:49     05 08 17.799380 +22 08 15.89845
 2018-Aug-09 06:50     05 08 17.859853 +22 08 15.93339
 2018-Aug-09 06:51     05 08 17.920326 +22 08 15.96835
 2018-Aug-09 06:52     05 08 17.980797 +22 08 16.00333
 2018-Aug-09 06:53     05 08 18.041269 +22 08 16.03833
 2018-Aug-09 06:54     05 08 18.101739 +22 08 16.07334
 2018-Aug-09 06:55     05 08 18.162209 +22 08 16.10836
 2018-Aug-09 06:56     05 08 18.222678 +22 08 16.14341
 2018-Aug-09 06:57     05 08 18.283146 +22 08 16.17846
 2018-Aug-09 06:58     05 08 18.343614 +22 08 16.21354
 2018-Aug-09 06:59     05 08 18.404080 +22 08 16.24863
 2018-Aug-09 07:00     05 08 18.464546 +22 08 16.28374
 2018-Aug-09 07:01     05 08 18.525012 +22 08 16.31886
 2018-Aug-09 07:02     05 08 18.585476 +22 08 16.35400
 2018-Aug-09 07:03     05 08 18.645940 +22 08 16.38915
 2018-Aug-09 07:04     05 08 18.706402 +22 08 16.42433
 2018-Aug-09 07:05     05 08 18.766864 +22 08 16.45951
 2018-Aug-09 07:06     05 08 18.827325 +22 08 16.49472
